{"type":"FeatureCollection","features":[{"type":"Feature","properties":{"zip":"64801","name":"North & Central Joplin","kind":"label"},"geometry":{"type":"Point","coordinates":[-94.52,37.095]}},{"type":"Feature","properties":{"zip":"64801","name":"North & Central Joplin","kind":"zip"},"geometry":{"type":"MultiPolygon","coordinates":[[[[-94.50731,37.07488],[-94.50945,37.07586],[-94.5095,37.07493],[-94.51499,37.07507],[-94.51495,37.07601],[-94.51605,37.07605],[-94.516,37.07717],[-94.51843,37.078],[-94.52174,37.07694],[-94.53141,37.07731],[-94.53173,37.06991],[-94.53186,37.07372],[-94.54123,37.06999],[-94.54429,37.07001],[-94.54498,37.07361],[-94.54659,37.07346],[-94.54773,37.07225],[-94.54912,37.07314],[-94.55339,37.07284],[-94.55388,37.07376],[-94.55592,37.07386],[-94.55623,37.07216],[-94.55918,37.07185],[-94.56731,37.07355],[-94.56757,37.07056],[-94.56744,37.07353],[-94.57841,37.07722],[-94.58185,37.07987],[-94.58665,37.08152],[-94.58815,37.08485],[-94.60147,37.08587],[-94.60715,37.08534],[-94.60794,37.08633],[-94.61447,37.08602],[-94.61592,37.0872],[-94.61803,37.08714],[-94.6176,37.14316],[-94.60169,37.13953],[-94.60179,37.1412],[-94.60089,37.14116],[-94.60013,37.14028],[-94.58257,37.13713],[-94.58255,37.13846],[-94.58147,37.13791],[-94.56526,37.14242],[-94.56519,37.1442],[-94.5197,37.14296],[-94.52312,37.14622],[-94.52404,37.15032],[-94.5195,37.1502],[-94.51917,37.15743],[-94.51005,37.1572],[-94.5109,37.13911],[-94.50872,37.13908],[-94.50856,37.14259],[-94.50619,37.14254],[-94.50633,37.13896],[-94.50173,37.13876],[-94.50177,37.13614],[-94.49333,37.12828],[-94.49356,37.12402],[-94.48129,37.12362],[-94.48132,37.12268],[-94.4776,37.11984],[-94.47787,37.11879],[-94.47585,37.11861],[-94.47606,37.1129],[-94.46881,37.11272],[-94.46962,37.10996],[-94.46672,37.10996],[-94.46672,37.11266],[-94.45767,37.11236],[-94.45753,37.11536],[-94.45672,37.11538],[-94.4575,37.11609],[-94.44848,37.11552],[-94.44846,37.11232],[-94.44171,37.11225],[-94.44517,37.11645],[-94.43966,37.12675],[-94.43882,37.12712],[-94.4384,37.13685],[-94.43342,37.13406],[-94.42051,37.13386],[-94.42018,37.14108],[-94.42342,37.1416],[-94.42723,37.14547],[-94.431,37.14775],[-94.42039,37.15527],[-94.43252,37.15562],[-94.43231,37.16382],[-94.43883,37.16425],[-94.44296,37.16318],[-94.44296,37.16654],[-94.45058,37.16667],[-94.45055,37.17029],[-94.45511,37.17033],[-94.45494,37.17548],[-94.45169,37.1768],[-94.45175,37.17855],[-94.44965,37.17986],[-94.44624,37.18072],[-94.44049,37.17859],[-94.43627,37.17813],[-94.43031,37.17939],[-94.42552,37.1775],[-94.42452,37.17636],[-94.42145,37.17602],[-94.41708,37.17056],[-94.4167,37.16761],[-94.41509,37.165],[-94.41246,37.1648],[-94.40723,37.1609],[-94.40451,37.16239],[-94.40152,37.15903],[-94.40024,37.15929],[-94.40031,37.16052],[-94.3981,37.16042],[-94.39599,37.15977],[-94.39456,37.15738],[-94.39114,37.15795],[-94.38451,37.15596],[-94.38232,37.15434],[-94.38223,37.15272],[-94.38005,37.1516],[-94.3773,37.14861],[-94.37932,37.14651],[-94.37921,37.14478],[-94.38106,37.14422],[-94.38248,37.14057],[-94.38428,37.1406],[-94.38444,37.13552],[-94.38327,37.13329],[-94.38275,37.12855],[-94.38482,37.12604],[-94.40287,37.12638],[-94.40395,37.09737],[-94.38302,37.09692],[-94.38519,37.09316],[-94.38566,37.09017],[-94.38693,37.09018],[-94.38805,37.09157],[-94.39043,37.08676],[-94.39065,37.0829],[-94.38609,37.08282],[-94.38643,37.07528],[-94.43738,37.05809],[-94.43865,37.05842],[-94.43864,37.05936],[-94.43727,37.05936],[-94.43721,37.06128],[-94.44113,37.06138],[-94.44167,37.0625],[-94.44176,37.06304],[-94.44002,37.063],[-94.43998,37.06496],[-94.44242,37.06576],[-94.44243,37.06914],[-94.44273,37.06577],[-94.45228,37.06582],[-94.45227,37.06927],[-94.46612,37.06944],[-94.46637,37.06404],[-94.46889,37.06406],[-94.46902,37.06951],[-94.47542,37.06964],[-94.47412,37.06865],[-94.47382,37.06736],[-94.47632,37.06926],[-94.47667,37.06271],[-94.47789,37.0627],[-94.47769,37.07405],[-94.49086,37.07442],[-94.49407,37.07627],[-94.49415,37.07451],[-94.50073,37.0747],[-94.50069,37.0757],[-94.50179,37.07574],[-94.50183,37.07473],[-94.50373,37.07478],[-94.50514,37.07808],[-94.50582,37.0781],[-94.50731,37.07488]],[[-94.42262,37.08328],[-94.42299,37.07432],[-94.41838,37.07424],[-94.41842,37.07274],[-94.41694,37.07361],[-94.41389,37.07382],[-94.41374,37.07677],[-94.41485,37.07681],[-94.4148,37.07757],[-94.41021,37.07755],[-94.41003,37.0743],[-94.40925,37.07392],[-94.40777,37.07375],[-94.40536,37.07581],[-94.40833,37.07629],[-94.40833,37.0756],[-94.40918,37.07567],[-94.40911,37.07851],[-94.4112,37.07951],[-94.41117,37.08054],[-94.41364,37.07953],[-94.41348,37.08322],[-94.42262,37.08328]]],[[[-94.4575,37.11609],[-94.47105,37.11644],[-94.47077,37.12086],[-94.47574,37.12099],[-94.47558,37.12376],[-94.45878,37.12332],[-94.45863,37.12181],[-94.4573,37.12131],[-94.4575,37.11609]]],[[[-94.4156,37.07563],[-94.41556,37.07491],[-94.41787,37.07498],[-94.41783,37.07564],[-94.4156,37.07563]]]]}},{"type":"Feature","properties":{"zip":"64804","name":"South Joplin","kind":"label"},"geometry":{"type":"Point","coordinates":[-94.505,37.047]}},{"type":"Feature","properties":{"zip":"64804","name":"South Joplin","kind":"zip"},"geometry":{"type":"Polygon","coordinates":[[[-94.53141,37.07731],[-94.51978,37.07705],[-94.51974,37.07803],[-94.51843,37.078],[-94.516,37.07717],[-94.51605,37.07605],[-94.51495,37.07601],[-94.51499,37.07507],[-94.5095,37.07493],[-94.50945,37.07586],[-94.50709,37.07487],[-94.50582,37.0781],[-94.50511,37.07808],[-94.50373,37.07478],[-94.50183,37.07473],[-94.50179,37.07574],[-94.50069,37.0757],[-94.50073,37.0747],[-94.49415,37.07451],[-94.49407,37.07627],[-94.49086,37.07442],[-94.47769,37.07405],[-94.47789,37.0627],[-94.47667,37.06271],[-94.47632,37.06926],[-94.47382,37.06736],[-94.47542,37.06964],[-94.46902,37.06951],[-94.46889,37.06406],[-94.46637,37.06404],[-94.46612,37.06944],[-94.45227,37.06927],[-94.45228,37.06582],[-94.44273,37.06577],[-94.44243,37.06914],[-94.44242,37.06576],[-94.43998,37.06496],[-94.44002,37.063],[-94.44176,37.06304],[-94.44167,37.0625],[-94.44113,37.06138],[-94.43721,37.06128],[-94.43727,37.05936],[-94.43864,37.05936],[-94.43865,37.05842],[-94.43738,37.05809],[-94.36841,37.08105],[-94.36885,37.06858],[-94.37068,37.06845],[-94.3702,37.06444],[-94.37137,37.06314],[-94.37343,37.06339],[-94.37476,37.06225],[-94.37209,37.05984],[-94.37229,37.05884],[-94.36856,37.05374],[-94.36949,37.05374],[-94.36999,37.03925],[-94.3879,37.03948],[-94.38855,37.02504],[-94.40325,37.02522],[-94.40332,37.02393],[-94.40381,37.02523],[-94.40681,37.02528],[-94.40708,37.01807],[-94.42516,37.01831],[-94.42553,36.98731],[-94.41663,36.98648],[-94.41663,36.97812],[-94.42029,36.97739],[-94.42323,36.97779],[-94.42578,36.97648],[-94.42575,36.96742],[-94.4291,36.96752],[-94.43487,36.96932],[-94.43487,36.96759],[-94.43945,36.96767],[-94.43978,36.96879],[-94.44473,36.96947],[-94.44977,36.96788],[-94.45319,36.9678],[-94.45321,36.96514],[-94.45458,36.96497],[-94.4598,36.95836],[-94.47138,36.95434],[-94.47171,36.95226],[-94.47352,36.95336],[-94.48452,36.95354],[-94.48736,36.95533],[-94.4874,36.95358],[-94.53011,36.95401],[-94.53022,36.95117],[-94.53102,36.95039],[-94.5324,36.94911],[-94.53464,36.94966],[-94.53481,36.94039],[-94.54925,36.95063],[-94.55267,36.95074],[-94.55262,36.95436],[-94.54672,36.95428],[-94.54657,36.95541],[-94.55085,36.95657],[-94.55312,36.95862],[-94.5523,36.96855],[-94.55832,36.96924],[-94.55803,36.97272],[-94.56537,36.97021],[-94.58005,36.97658],[-94.57937,36.97718],[-94.58664,36.97655],[-94.58681,36.96936],[-94.59146,36.96931],[-94.59288,36.96986],[-94.58973,36.9753],[-94.60014,36.97531],[-94.60223,36.97074],[-94.60535,36.97067],[-94.60681,36.97112],[-94.60656,36.97202],[-94.60915,36.97217],[-94.61031,36.97473],[-94.61376,36.97529],[-94.61359,36.97586],[-94.61477,36.97637],[-94.61624,36.97301],[-94.61824,36.9709],[-94.61803,37.08714],[-94.61592,37.0872],[-94.61447,37.08602],[-94.60794,37.08633],[-94.60715,37.08534],[-94.60147,37.08587],[-94.58815,37.08485],[-94.58665,37.08152],[-94.58185,37.07987],[-94.57841,37.07722],[-94.56744,37.07353],[-94.56757,37.07056],[-94.56731,37.07355],[-94.55918,37.07185],[-94.55623,37.07216],[-94.55592,37.07386],[-94.55388,37.07376],[-94.55339,37.07284],[-94.54912,37.07314],[-94.54773,37.07225],[-94.54659,37.07346],[-94.54498,37.07361],[-94.54429,37.07001],[-94.54123,37.06999],[-94.53186,37.07372],[-94.53173,37.06991],[-94.53141,37.07731]]]}},{"type":"Feature","properties":{"zip":"64870","name":"Webb City","kind":"label"},"geometry":{"type":"Point","coordinates":[-94.49849,37.18468]}},{"type":"Feature","properties":{"zip":"64870","name":"Webb City","kind":"zip"},"geometry":{"type":"Polygon","coordinates":[[[-94.48129,37.12362],[-94.49356,37.12402],[-94.49333,37.12828],[-94.50177,37.13614],[-94.50173,37.13876],[-94.50633,37.13896],[-94.50619,37.14254],[-94.50856,37.14259],[-94.50872,37.13908],[-94.5109,37.13911],[-94.50997,37.15857],[-94.51263,37.16554],[-94.51259,37.16722],[-94.51451,37.16815],[-94.51422,37.1695],[-94.51749,37.16954],[-94.51879,37.16799],[-94.52187,37.16844],[-94.52539,37.16389],[-94.52793,37.16386],[-94.53501,37.16684],[-94.54283,37.1751],[-94.53673,37.1746],[-94.53647,37.17245],[-94.52748,37.17216],[-94.52691,37.18656],[-94.54107,37.187],[-94.5271,37.19173],[-94.52601,37.22998],[-94.5443,37.23057],[-94.54351,37.25936],[-94.51611,37.25867],[-94.51658,37.2442],[-94.48942,37.24345],[-94.49026,37.21401],[-94.4855,37.21062],[-94.48538,37.20835],[-94.48587,37.20361],[-94.4883,37.19988],[-94.49064,37.19995],[-94.49088,37.18911],[-94.48191,37.1889],[-94.48197,37.18524],[-94.46989,37.18489],[-94.471,37.18207],[-94.46858,37.18193],[-94.46856,37.18487],[-94.45532,37.18474],[-94.4552,37.19487],[-94.45817,37.19577],[-94.45805,37.19924],[-94.4551,37.19921],[-94.45472,37.21368],[-94.43645,37.21343],[-94.43912,37.21868],[-94.42811,37.21784],[-94.428,37.22191],[-94.41819,37.22189],[-94.41809,37.22579],[-94.41228,37.22466],[-94.40819,37.22287],[-94.4065,37.2217],[-94.4067,37.21985],[-94.40378,37.21886],[-94.40404,37.21705],[-94.40172,37.21751],[-94.40046,37.21689],[-94.40175,37.21563],[-94.40017,37.21511],[-94.4008,37.19852],[-94.41886,37.19873],[-94.41932,37.18429],[-94.41565,37.18423],[-94.41591,37.18372],[-94.42108,37.18319],[-94.4283,37.17993],[-94.42903,37.17878],[-94.43141,37.17947],[-94.43475,37.17811],[-94.44049,37.17859],[-94.4469,37.18066],[-94.4511,37.17912],[-94.45189,37.17822],[-94.45169,37.1768],[-94.45494,37.17548],[-94.45511,37.17033],[-94.45055,37.17029],[-94.45058,37.16667],[-94.44296,37.16654],[-94.44296,37.16318],[-94.44667,37.16108],[-94.44743,37.15756],[-94.45458,37.1494],[-94.45432,37.14159],[-94.43822,37.14154],[-94.43882,37.12712],[-94.43966,37.12675],[-94.44517,37.11645],[-94.44171,37.11225],[-94.44846,37.11232],[-94.44848,37.11552],[-94.4575,37.11609],[-94.45672,37.11538],[-94.45753,37.11536],[-94.45767,37.11236],[-94.46672,37.11266],[-94.46672,37.10996],[-94.46962,37.10996],[-94.46881,37.11272],[-94.47606,37.1129],[-94.47585,37.11861],[-94.47787,37.11879],[-94.4776,37.11984],[-94.48132,37.12268],[-94.48129,37.12362]],[[-94.4575,37.11609],[-94.4573,37.12131],[-94.45863,37.12181],[-94.45878,37.12332],[-94.47558,37.12376],[-94.47574,37.12099],[-94.47077,37.12086],[-94.47105,37.11644],[-94.4575,37.11609]]]}},{"type":"Feature","properties":{"zip":"64834","name":"Carl Junction","kind":"label"},"geometry":{"type":"Point","coordinates":[-94.56821,37.19831]}},{"type":"Feature","properties":{"zip":"64834","name":"Carl Junction","kind":"zip"},"geometry":{"type":"Polygon","coordinates":[[[-94.60852,37.21348],[-94.60687,37.21998],[-94.60521,37.22151],[-94.59158,37.2225],[-94.58151,37.22772],[-94.57632,37.23166],[-94.58481,37.2465],[-94.56638,37.24562],[-94.56551,37.24743],[-94.55592,37.24899],[-94.55119,37.25125],[-94.54542,37.25942],[-94.54351,37.25936],[-94.5443,37.23057],[-94.52601,37.22998],[-94.5271,37.19173],[-94.54107,37.187],[-94.52691,37.18656],[-94.52748,37.17216],[-94.53647,37.17245],[-94.53673,37.1746],[-94.54283,37.1751],[-94.53501,37.16684],[-94.52793,37.16386],[-94.52539,37.16389],[-94.52187,37.16844],[-94.51879,37.16799],[-94.51749,37.16954],[-94.51422,37.1695],[-94.51451,37.16815],[-94.51259,37.16722],[-94.51005,37.1572],[-94.51917,37.15743],[-94.5195,37.1502],[-94.52404,37.15032],[-94.52406,37.14823],[-94.52272,37.14554],[-94.51937,37.14315],[-94.56519,37.1442],[-94.56526,37.14242],[-94.58147,37.13791],[-94.58255,37.13846],[-94.58257,37.13713],[-94.60013,37.14028],[-94.60089,37.14116],[-94.60179,37.1412],[-94.60169,37.13953],[-94.6176,37.14316],[-94.61804,37.14234],[-94.61831,37.19469],[-94.61558,37.19491],[-94.61014,37.19778],[-94.60631,37.20231],[-94.606,37.20499],[-94.60855,37.20837],[-94.60852,37.21348]]]}},{"type":"Feature","properties":{"zip":"64836","name":"Carthage","kind":"label"},"geometry":{"type":"Point","coordinates":[-94.3161,37.18229]}},{"type":"Feature","properties":{"zip":"64836","name":"Carthage","kind":"zip"},"geometry":{"type":"Polygon","coordinates":[[[-94.41565,37.18423],[-94.41932,37.18429],[-94.41886,37.19873],[-94.4008,37.19852],[-94.39938,37.24923],[-94.40043,37.24925],[-94.39922,37.2499],[-94.39907,37.25654],[-94.39706,37.25618],[-94.39414,37.25385],[-94.3894,37.25334],[-94.38707,37.25435],[-94.38306,37.2522],[-94.38102,37.25243],[-94.38053,37.26745],[-94.38511,37.26756],[-94.38478,37.27839],[-94.36231,37.27777],[-94.36175,37.27852],[-94.35734,37.27844],[-94.35735,37.28973],[-94.35813,37.28988],[-94.35814,37.29231],[-94.36103,37.29235],[-94.36103,37.29742],[-94.35587,37.29731],[-94.35447,37.30089],[-94.35602,37.30373],[-94.35863,37.3054],[-94.3624,37.31215],[-94.28496,37.31026],[-94.28553,37.2956],[-94.28769,37.29566],[-94.28806,37.28512],[-94.26995,37.28525],[-94.27048,37.2708],[-94.23359,37.27068],[-94.23277,37.29441],[-94.1788,37.29296],[-94.17935,37.27593],[-94.16987,37.27997],[-94.16867,37.28331],[-94.16414,37.28276],[-94.16254,37.2799],[-94.15976,37.28063],[-94.15546,37.27598],[-94.15179,37.27627],[-94.15209,37.26896],[-94.14286,37.26859],[-94.1433,37.25405],[-94.1616,37.25451],[-94.16201,37.24003],[-94.16169,37.2433],[-94.15328,37.2433],[-94.15329,37.24664],[-94.14353,37.24641],[-94.14446,37.21411],[-94.16266,37.21448],[-94.16317,37.19629],[-94.19959,37.19704],[-94.20004,37.18254],[-94.20999,37.18277],[-94.21173,37.17769],[-94.21485,37.17569],[-94.20743,37.17381],[-94.20353,37.17095],[-94.20032,37.17059],[-94.20055,37.16244],[-94.18333,37.15698],[-94.1826,37.15531],[-94.17914,37.15505],[-94.17912,37.15324],[-94.172,37.15307],[-94.15539,37.15037],[-94.16422,37.14664],[-94.18567,37.13994],[-94.21938,37.14099],[-94.21978,37.13409],[-94.21362,37.13383],[-94.20161,37.12954],[-94.2018,37.1244],[-94.22011,37.12471],[-94.22025,37.11742],[-94.21909,37.11446],[-94.22021,37.11209],[-94.2165,37.11074],[-94.21459,37.10925],[-94.21423,37.10795],[-94.206,37.10794],[-94.2062,37.09479],[-94.20434,37.09445],[-94.20435,37.08346],[-94.21046,37.08353],[-94.21054,37.08063],[-94.21651,37.08076],[-94.21651,37.07731],[-94.22155,37.07728],[-94.22203,37.06593],[-94.2245,37.0661],[-94.2286,37.06852],[-94.23439,37.06775],[-94.2382,37.06874],[-94.23975,37.06826],[-94.24083,37.05248],[-94.27723,37.05305],[-94.27674,37.0675],[-94.3085,37.06777],[-94.30855,37.06433],[-94.30913,37.06433],[-94.31437,37.06448],[-94.31422,37.0678],[-94.34008,37.0681],[-94.33943,37.08117],[-94.33028,37.08145],[-94.33022,37.08212],[-94.36502,37.08206],[-94.38643,37.07528],[-94.38609,37.08282],[-94.39065,37.0829],[-94.39043,37.08676],[-94.38805,37.09157],[-94.38693,37.09018],[-94.38566,37.09017],[-94.38519,37.09316],[-94.38302,37.09692],[-94.40395,37.09737],[-94.40287,37.12638],[-94.38482,37.12604],[-94.38275,37.12855],[-94.38327,37.13329],[-94.38444,37.13552],[-94.38428,37.1406],[-94.38248,37.14057],[-94.38106,37.14422],[-94.37921,37.14478],[-94.37932,37.14651],[-94.3773,37.14861],[-94.38005,37.1516],[-94.38223,37.15272],[-94.38232,37.15434],[-94.38451,37.15596],[-94.39114,37.15795],[-94.39456,37.15738],[-94.39599,37.15977],[-94.3981,37.16042],[-94.40031,37.16052],[-94.40024,37.15929],[-94.40152,37.15903],[-94.40451,37.16239],[-94.40723,37.1609],[-94.41246,37.1648],[-94.41509,37.165],[-94.4167,37.16761],[-94.41708,37.17056],[-94.42087,37.17554],[-94.42452,37.17636],[-94.42552,37.1775],[-94.42903,37.17878],[-94.4283,37.17993],[-94.42108,37.18319],[-94.41632,37.18347],[-94.41565,37.18423]]]}},{"type":"Feature","properties":{"zip":"64850","name":"Neosho","kind":"label"},"geometry":{"type":"Point","coordinates":[-94.40714,36.85861]}},{"type":"Feature","properties":{"zip":"64850","name":"Neosho","kind":"zip"},"geometry":{"type":"Polygon","coordinates":[[[-94.42575,36.96742],[-94.42572,36.97576],[-94.41044,36.96802],[-94.40516,36.96629],[-94.40414,36.96461],[-94.40471,36.96024],[-94.40377,36.96031],[-94.40366,36.95949],[-94.40209,36.95968],[-94.40263,36.96076],[-94.40189,36.96093],[-94.39313,36.95775],[-94.38778,36.96022],[-94.38519,36.96242],[-94.38518,36.96377],[-94.38758,36.96577],[-94.39153,36.97388],[-94.39326,36.97535],[-94.38569,36.9747],[-94.38276,36.97626],[-94.38191,36.97823],[-94.37929,36.98002],[-94.37659,36.98115],[-94.37137,36.98125],[-94.37135,36.98589],[-94.3631,36.98598],[-94.35767,36.98112],[-94.35117,36.98097],[-94.35068,36.99548],[-94.34161,36.99534],[-94.34038,36.99458],[-94.34025,36.99043],[-94.34171,36.98584],[-94.33314,36.98577],[-94.33327,36.98083],[-94.3154,36.98047],[-94.31642,36.95141],[-94.30015,36.95115],[-94.29851,36.94814],[-94.29479,36.94682],[-94.28432,36.94607],[-94.28065,36.94767],[-94.28059,36.94241],[-94.27607,36.94069],[-94.28065,36.94097],[-94.28233,36.93214],[-94.28168,36.93205],[-94.28108,36.9297],[-94.27336,36.92965],[-94.2731,36.92242],[-94.26939,36.92243],[-94.26942,36.91888],[-94.2741,36.91898],[-94.27408,36.918],[-94.28212,36.91801],[-94.28734,36.91593],[-94.29376,36.91464],[-94.29318,36.9179],[-94.29709,36.92277],[-94.30091,36.9237],[-94.30819,36.92047],[-94.30945,36.92136],[-94.30915,36.92236],[-94.31317,36.9224],[-94.31024,36.91273],[-94.31113,36.91112],[-94.31522,36.90786],[-94.31494,36.90469],[-94.31666,36.90485],[-94.31718,36.89151],[-94.31643,36.89334],[-94.31301,36.89335],[-94.31277,36.89689],[-94.2963,36.89668],[-94.29065,36.89757],[-94.28176,36.90069],[-94.28194,36.89409],[-94.27163,36.89463],[-94.26872,36.89265],[-94.26401,36.89258],[-94.26585,36.82698],[-94.2703,36.82712],[-94.27157,36.80155],[-94.2623,36.80102],[-94.26228,36.79793],[-94.25374,36.79783],[-94.2539,36.79383],[-94.25152,36.79478],[-94.2506,36.7938],[-94.24327,36.79258],[-94.24301,36.79003],[-94.24188,36.78822],[-94.24293,36.78343],[-94.24437,36.7818],[-94.24425,36.78038],[-94.24903,36.78248],[-94.2491,36.78435],[-94.25133,36.78667],[-94.25338,36.78462],[-94.25447,36.7855],[-94.2565,36.78436],[-94.25654,36.783],[-94.25948,36.78171],[-94.26471,36.77531],[-94.26763,36.77523],[-94.26736,36.77075],[-94.26863,36.76838],[-94.2696,36.76781],[-94.27303,36.76851],[-94.27507,36.76683],[-94.2753,36.76368],[-94.273,36.76284],[-94.27195,36.76077],[-94.27287,36.75588],[-94.27457,36.75445],[-94.28001,36.75234],[-94.28158,36.75052],[-94.28186,36.74793],[-94.28434,36.74417],[-94.29208,36.7446],[-94.29216,36.7416],[-94.29663,36.7402],[-94.29966,36.73769],[-94.30566,36.74078],[-94.31139,36.73603],[-94.31204,36.73458],[-94.31145,36.73297],[-94.31228,36.73192],[-94.31726,36.72876],[-94.31817,36.72636],[-94.3205,36.72512],[-94.32569,36.72402],[-94.32757,36.72233],[-94.33051,36.72126],[-94.33353,36.72444],[-94.33952,36.72752],[-94.34198,36.73037],[-94.34635,36.73045],[-94.34645,36.72784],[-94.36388,36.72825],[-94.36588,36.73842],[-94.36629,36.74605],[-94.36562,36.74836],[-94.3665,36.75045],[-94.36555,36.75343],[-94.36559,36.7579],[-94.36776,36.75801],[-94.36762,36.76107],[-94.36587,36.7624],[-94.37012,36.76738],[-94.36971,36.76812],[-94.37083,36.76926],[-94.37143,36.77443],[-94.37454,36.77742],[-94.37502,36.7823],[-94.38067,36.78376],[-94.37894,36.78529],[-94.37786,36.80176],[-94.37211,36.80165],[-94.37104,36.80567],[-94.37854,36.80928],[-94.3829,36.803],[-94.39513,36.79312],[-94.4063,36.77778],[-94.41269,36.77407],[-94.41598,36.77419],[-94.41507,36.78868],[-94.42145,36.78893],[-94.42388,36.77451],[-94.45109,36.77548],[-94.45146,36.7683],[-94.46481,36.76876],[-94.46549,36.76152],[-94.50575,36.76292],[-94.50396,36.7946],[-94.50872,36.79503],[-94.51366,36.79746],[-94.52203,36.79776],[-94.52162,36.80709],[-94.5393,36.80772],[-94.53889,36.81495],[-94.53462,36.81478],[-94.53491,36.81273],[-94.53474,36.81175],[-94.53437,36.8147],[-94.53434,36.81549],[-94.53876,36.81537],[-94.53878,36.81652],[-94.53592,36.81694],[-94.5358,36.81758],[-94.53857,36.82236],[-94.54252,36.82246],[-94.55007,36.82474],[-94.55659,36.8255],[-94.55604,36.83817],[-94.55437,36.83818],[-94.55401,36.85361],[-94.54944,36.85308],[-94.54918,36.86855],[-94.55187,36.87083],[-94.55397,36.87141],[-94.55451,36.87447],[-94.55172,36.87738],[-94.54745,36.87859],[-94.54705,36.88047],[-94.5432,36.88113],[-94.54154,36.8829],[-94.54429,36.88351],[-94.55026,36.88157],[-94.55357,36.87671],[-94.55612,36.87486],[-94.55668,36.87579],[-94.55593,36.87942],[-94.55112,36.88389],[-94.54418,36.88872],[-94.54001,36.88941],[-94.5341,36.89489],[-94.5306,36.8959],[-94.52663,36.89575],[-94.52262,36.89944],[-94.51988,36.90031],[-94.51988,36.90208],[-94.51716,36.90455],[-94.51715,36.90595],[-94.52711,36.89903],[-94.5285,36.90259],[-94.52801,36.90996],[-94.52976,36.91507],[-94.53144,36.91806],[-94.5343,36.92001],[-94.53527,36.9217],[-94.53464,36.94966],[-94.5324,36.94911],[-94.53102,36.95039],[-94.53022,36.95117],[-94.53011,36.95401],[-94.4874,36.95358],[-94.48736,36.95533],[-94.48452,36.95354],[-94.47352,36.95336],[-94.47171,36.95226],[-94.47138,36.95434],[-94.4598,36.95836],[-94.45458,36.96497],[-94.45321,36.96514],[-94.45319,36.9678],[-94.44977,36.96788],[-94.44473,36.96947],[-94.43978,36.96879],[-94.43945,36.96767],[-94.43487,36.96759],[-94.43487,36.96932],[-94.4291,36.96752],[-94.42575,36.96742]]]}},{"type":"Feature","properties":{"zip":"64855","name":"Oronogo","kind":"label"},"geometry":{"type":"Point","coordinates":[-94.468,37.19]}},{"type":"Feature","properties":{"zip":"64855","name":"Oronogo","kind":"zip"},"geometry":{"type":"Polygon","coordinates":[[[-94.48942,37.24345],[-94.51658,37.2442],[-94.51611,37.25867],[-94.54542,37.25942],[-94.54171,37.26679],[-94.53629,37.26741],[-94.53529,37.26853],[-94.53606,37.27251],[-94.53913,37.27899],[-94.53887,37.28435],[-94.53657,37.2854],[-94.5338,37.28487],[-94.53047,37.2854],[-94.52575,37.28329],[-94.52517,37.28395],[-94.52626,37.29002],[-94.5305,37.29304],[-94.53408,37.2986],[-94.53201,37.30144],[-94.53534,37.30112],[-94.53657,37.30224],[-94.53531,37.3044],[-94.53047,37.30529],[-94.52972,37.30678],[-94.53112,37.30904],[-94.52929,37.31028],[-94.52957,37.31213],[-94.53338,37.31257],[-94.53424,37.31424],[-94.53321,37.31497],[-94.5329,37.31964],[-94.52963,37.32287],[-94.52745,37.32268],[-94.52842,37.3212],[-94.52802,37.32049],[-94.52564,37.32117],[-94.52524,37.32335],[-94.52387,37.32525],[-94.52513,37.32587],[-94.52461,37.32712],[-94.5263,37.32873],[-94.52426,37.3298],[-94.52191,37.33484],[-94.5236,37.33566],[-94.52363,37.3371],[-94.52062,37.33793],[-94.52056,37.34058],[-94.5197,37.34186],[-94.51861,37.34193],[-94.51804,37.3398],[-94.51692,37.33978],[-94.51543,37.34285],[-94.51333,37.34372],[-94.51459,37.34642],[-94.5127,37.3466],[-94.51213,37.34754],[-94.5152,37.34969],[-94.51483,37.35341],[-94.517,37.35343],[-94.51687,37.36124],[-94.51545,37.36133],[-94.51352,37.36359],[-94.50588,37.36574],[-94.50459,37.36751],[-94.50575,37.37155],[-94.50756,37.37296],[-94.50831,37.37298],[-94.50918,37.3712],[-94.51393,37.37155],[-94.51726,37.37443],[-94.51565,37.37602],[-94.50132,37.37501],[-94.5009,37.38953],[-94.46445,37.38845],[-94.46489,37.3732],[-94.44687,37.37251],[-94.44795,37.34088],[-94.44639,37.33618],[-94.43024,37.33579],[-94.43113,37.31395],[-94.47623,37.31575],[-94.47662,37.30967],[-94.48104,37.30965],[-94.48113,37.30136],[-94.48309,37.30145],[-94.4835,37.29032],[-94.47579,37.29017],[-94.4799,37.28851],[-94.48021,37.28576],[-94.47285,37.28649],[-94.4709,37.2861],[-94.46947,37.28443],[-94.47033,37.2788],[-94.47537,37.27514],[-94.47448,37.27319],[-94.47046,37.26904],[-94.471,37.25053],[-94.46799,37.2512],[-94.46565,37.24878],[-94.46588,37.24674],[-94.46453,37.245],[-94.45878,37.24505],[-94.45654,37.24194],[-94.45316,37.23965],[-94.44924,37.2386],[-94.44921,37.23661],[-94.4481,37.23512],[-94.45068,37.23283],[-94.44944,37.23168],[-94.447,37.23162],[-94.44365,37.22733],[-94.4438,37.22303],[-94.44108,37.22257],[-94.43896,37.22113],[-94.43635,37.22255],[-94.43266,37.22274],[-94.43197,37.22132],[-94.43011,37.22054],[-94.42734,37.22374],[-94.4225,37.22374],[-94.41952,37.22594],[-94.41809,37.22579],[-94.41819,37.22189],[-94.428,37.22191],[-94.42811,37.21784],[-94.43912,37.21868],[-94.43645,37.21343],[-94.45472,37.21368],[-94.4551,37.19921],[-94.45805,37.19924],[-94.45817,37.19577],[-94.4552,37.19487],[-94.45532,37.18474],[-94.46856,37.18487],[-94.46858,37.18193],[-94.471,37.18207],[-94.46989,37.18489],[-94.48197,37.18524],[-94.48191,37.1889],[-94.49088,37.18911],[-94.49064,37.19995],[-94.4883,37.19988],[-94.48587,37.20361],[-94.48538,37.20835],[-94.4855,37.21062],[-94.49026,37.21401],[-94.48942,37.24345]]]}},{"type":"Feature","properties":{"zip":"64835","name":"Carterville","kind":"label"},"geometry":{"type":"Point","coordinates":[-94.44203,37.14903]}},{"type":"Feature","properties":{"zip":"64835","name":"Carterville","kind":"zip"},"geometry":{"type":"Polygon","coordinates":[[[-94.43822,37.14118],[-94.45432,37.14159],[-94.45458,37.1494],[-94.44743,37.15756],[-94.44703,37.16046],[-94.44521,37.16231],[-94.43988,37.16418],[-94.43231,37.16382],[-94.43252,37.15562],[-94.42039,37.15527],[-94.431,37.14775],[-94.42723,37.14547],[-94.42342,37.1416],[-94.42018,37.14108],[-94.42051,37.13386],[-94.43342,37.13406],[-94.4384,37.13685],[-94.43822,37.14118]]]}},{"type":"Feature","properties":{"zip":"64840","name":"Diamond","kind":"label"},"geometry":{"type":"Point","coordinates":[-94.33398,37.01679]}},{"type":"Feature","properties":{"zip":"64840","name":"Diamond","kind":"zip"},"geometry":{"type":"Polygon","coordinates":[[[-94.35117,36.98097],[-94.35767,36.98112],[-94.3631,36.98598],[-94.37135,36.98589],[-94.37137,36.98125],[-94.37659,36.98115],[-94.37929,36.98002],[-94.38191,36.97823],[-94.38276,36.97626],[-94.38569,36.9747],[-94.39326,36.97535],[-94.39153,36.97388],[-94.38758,36.96577],[-94.38518,36.96377],[-94.38519,36.96242],[-94.38778,36.96022],[-94.39313,36.95775],[-94.40189,36.96093],[-94.40263,36.96076],[-94.40209,36.95968],[-94.40366,36.95949],[-94.40377,36.96031],[-94.40471,36.96024],[-94.40414,36.96461],[-94.40516,36.96629],[-94.41044,36.96802],[-94.42572,36.97576],[-94.42578,36.97648],[-94.42323,36.97779],[-94.42029,36.97739],[-94.41663,36.97812],[-94.41663,36.98648],[-94.42553,36.98731],[-94.42516,37.01831],[-94.40708,37.01807],[-94.40681,37.02528],[-94.40381,37.02523],[-94.40332,37.02393],[-94.40325,37.02522],[-94.38855,37.02504],[-94.3879,37.03948],[-94.36999,37.03925],[-94.36949,37.05374],[-94.36856,37.05374],[-94.37229,37.05884],[-94.37209,37.05984],[-94.37476,37.06225],[-94.37343,37.06339],[-94.37137,37.06314],[-94.3702,37.06444],[-94.37068,37.06845],[-94.36885,37.06858],[-94.36875,37.08026],[-94.36771,37.08152],[-94.36284,37.08227],[-94.33022,37.08212],[-94.33028,37.08145],[-94.33943,37.08117],[-94.34008,37.0681],[-94.31422,37.0678],[-94.31437,37.06448],[-94.30913,37.06433],[-94.30855,37.06433],[-94.3085,37.06777],[-94.27674,37.0675],[-94.27723,37.05305],[-94.26661,37.05256],[-94.26481,37.05032],[-94.26498,37.04802],[-94.26324,37.04688],[-94.26441,37.0451],[-94.26384,37.04429],[-94.26255,37.04442],[-94.26219,37.04301],[-94.26038,37.04184],[-94.26045,37.03824],[-94.26165,37.03733],[-94.25887,37.03601],[-94.25813,37.03372],[-94.25249,37.03194],[-94.25061,37.02952],[-94.24939,37.02939],[-94.24864,37.02772],[-94.24782,37.02794],[-94.2475,37.02187],[-94.24568,37.01879],[-94.24383,37.01844],[-94.24211,37.01597],[-94.24256,36.99431],[-94.25418,36.99497],[-94.27938,36.99475],[-94.2798,36.97542],[-94.29796,36.97538],[-94.29822,36.96567],[-94.30663,36.96579],[-94.30598,36.95482],[-94.3067,36.95126],[-94.31642,36.95141],[-94.3154,36.98047],[-94.33327,36.98083],[-94.33314,36.98577],[-94.34171,36.98584],[-94.34025,36.99043],[-94.34045,36.99474],[-94.34799,36.99545],[-94.35068,36.99548],[-94.35117,36.98097]]]}},{"type":"Feature","properties":{"zip":"64862","name":"Sarcoxie","kind":"label"},"geometry":{"type":"Point","coordinates":[-94.09317,37.12958]}},{"type":"Feature","properties":{"zip":"64862","name":"Sarcoxie","kind":"zip"},"geometry":{"type":"Polygon","coordinates":[[[-94.26209,37.0439],[-94.26399,37.04441],[-94.2646,37.04571],[-94.26324,37.04688],[-94.26498,37.04802],[-94.26481,37.05032],[-94.26583,37.0517],[-94.26787,37.05306],[-94.24083,37.05248],[-94.24023,37.06774],[-94.2382,37.06874],[-94.23439,37.06775],[-94.2286,37.06852],[-94.2245,37.0661],[-94.22203,37.06593],[-94.22155,37.07728],[-94.21651,37.07731],[-94.21651,37.08076],[-94.16716,37.07986],[-94.16706,37.0822],[-94.16337,37.08304],[-94.15963,37.0876],[-94.15643,37.08776],[-94.1542,37.08524],[-94.15131,37.08443],[-94.14705,37.08645],[-94.14591,37.08535],[-94.14114,37.08629],[-94.13988,37.08894],[-94.14074,37.09146],[-94.14005,37.09249],[-94.13699,37.09434],[-94.13248,37.09343],[-94.13052,37.09427],[-94.12971,37.12236],[-94.12289,37.12236],[-94.12294,37.12582],[-94.11149,37.12565],[-94.11091,37.13685],[-94.0929,37.13619],[-94.09255,37.14347],[-94.09806,37.14341],[-94.09803,37.14586],[-94.09486,37.14767],[-94.09031,37.1481],[-94.08385,37.14675],[-94.0817,37.1489],[-94.07767,37.15023],[-94.0929,37.15069],[-94.09202,37.1652],[-94.07398,37.16456],[-94.07342,37.18672],[-94.0915,37.18722],[-94.09184,37.17607],[-94.1077,37.17644],[-94.10695,37.18017],[-94.10383,37.18063],[-94.1024,37.18161],[-94.10023,37.18123],[-94.09974,37.18301],[-94.10109,37.18663],[-94.09517,37.19043],[-94.09431,37.1951],[-94.09265,37.19785],[-94.09231,37.20005],[-94.0912,37.20037],[-94.09017,37.23804],[-94.10851,37.23855],[-94.108,37.25307],[-94.03538,37.25102],[-94.03552,37.24342],[-94.03412,37.24328],[-94.03429,37.2425],[-94.03554,37.24231],[-94.03574,37.23285],[-94.03238,37.23269],[-94.0322,37.22916],[-94.02759,37.22904],[-94.02752,37.22794],[-94.03286,37.22466],[-94.03299,37.22308],[-94.03449,37.22256],[-94.0373,37.21733],[-94.04217,37.21651],[-94.04362,37.21531],[-94.04669,37.21451],[-94.04548,37.21029],[-94.04572,37.20059],[-94.05477,37.20077],[-94.05649,37.15687],[-94.06135,37.15263],[-94.06168,37.14498],[-94.08361,37.14048],[-94.08372,37.13506],[-94.0748,37.13564],[-94.07499,37.1286],[-94.05692,37.12764],[-94.0578,37.09163],[-94.03983,37.09129],[-94.03919,37.1133],[-94.03058,37.11371],[-94.0303,37.11639],[-94.0214,37.11623],[-94.02122,37.11982],[-93.98505,37.119],[-93.98548,37.10452],[-94.01708,37.10524],[-94.01739,37.09391],[-94.01375,37.09389],[-94.01379,37.09069],[-94.00399,37.09046],[-94.00408,37.07917],[-94.01768,37.07949],[-94.01776,37.07709],[-94.01844,37.0766],[-94.03751,37.07697],[-94.04027,37.07774],[-94.0403,37.07677],[-93.99968,37.07586],[-93.99997,37.06466],[-94.02236,37.0651],[-94.02274,37.0615],[-94.04073,37.06188],[-94.04051,37.06988],[-94.04565,37.07226],[-94.04717,37.07349],[-94.04707,37.07525],[-94.05052,37.07678],[-94.05787,37.07668],[-94.05939,37.04242],[-94.0627,37.0446],[-94.06471,37.04486],[-94.07122,37.04211],[-94.0743,37.03933],[-94.07585,37.03675],[-94.07721,37.03748],[-94.0787,37.03678],[-94.08168,37.03809],[-94.08267,37.03702],[-94.08491,37.03708],[-94.08593,37.03865],[-94.08668,37.03852],[-94.08646,37.03764],[-94.08737,37.03793],[-94.08842,37.03985],[-94.09151,37.03935],[-94.09275,37.04046],[-94.09194,37.04292],[-94.09387,37.04164],[-94.09543,37.04164],[-94.09623,37.01989],[-94.11429,37.02033],[-94.11381,37.03486],[-94.13195,37.03531],[-94.13302,37.00624],[-94.20572,37.00788],[-94.20546,37.02244],[-94.24742,37.0235],[-94.24782,37.02794],[-94.24864,37.02772],[-94.24939,37.02939],[-94.25061,37.02952],[-94.25249,37.03194],[-94.25813,37.03372],[-94.25887,37.03601],[-94.26165,37.03733],[-94.26059,37.03787],[-94.26019,37.04005],[-94.26038,37.04184],[-94.26219,37.04301],[-94.26209,37.0439]]]}},{"type":"Feature","properties":{"zip":"64832","name":"Asbury","kind":"label"},"geometry":{"type":"Point","coordinates":[-94.57559,37.31715]}},{"type":"Feature","properties":{"zip":"64832","name":"Asbury","kind":"zip"},"geometry":{"type":"Polygon","coordinates":[[[-94.51572,37.37602],[-94.51727,37.37425],[-94.51408,37.37158],[-94.50918,37.3712],[-94.50799,37.3731],[-94.50597,37.37178],[-94.50459,37.36751],[-94.50588,37.36574],[-94.51352,37.36359],[-94.51545,37.36133],[-94.51687,37.36124],[-94.517,37.35343],[-94.51483,37.35341],[-94.5152,37.34969],[-94.51207,37.34715],[-94.51459,37.34642],[-94.51333,37.34372],[-94.51543,37.34285],[-94.51646,37.34014],[-94.51804,37.3398],[-94.51838,37.34172],[-94.5197,37.34186],[-94.52056,37.34058],[-94.52062,37.33793],[-94.52375,37.3369],[-94.5236,37.33566],[-94.52191,37.33484],[-94.52426,37.3298],[-94.5263,37.32873],[-94.52461,37.32712],[-94.52513,37.32587],[-94.52387,37.32525],[-94.52524,37.32335],[-94.52564,37.32117],[-94.52802,37.32049],[-94.52842,37.3212],[-94.52745,37.32268],[-94.52963,37.32287],[-94.5329,37.31964],[-94.53321,37.31497],[-94.53424,37.31424],[-94.53338,37.31257],[-94.52957,37.31213],[-94.52929,37.31028],[-94.53112,37.30904],[-94.52972,37.30678],[-94.53047,37.30529],[-94.53531,37.3044],[-94.53657,37.30224],[-94.53534,37.30112],[-94.53201,37.30144],[-94.53408,37.2986],[-94.5305,37.29304],[-94.52626,37.29002],[-94.52546,37.28787],[-94.52537,37.28354],[-94.53047,37.2854],[-94.5338,37.28487],[-94.53657,37.2854],[-94.53887,37.28435],[-94.53913,37.27899],[-94.53606,37.27251],[-94.53529,37.26853],[-94.53629,37.26741],[-94.54171,37.26679],[-94.54546,37.25935],[-94.55119,37.25125],[-94.55592,37.24899],[-94.56551,37.24743],[-94.56638,37.24562],[-94.58481,37.2465],[-94.57632,37.23166],[-94.58151,37.22772],[-94.59158,37.2225],[-94.60415,37.22192],[-94.60592,37.22094],[-94.60724,37.21904],[-94.60872,37.21077],[-94.60843,37.2078],[-94.606,37.20499],[-94.60631,37.20231],[-94.61014,37.19778],[-94.61558,37.19491],[-94.61831,37.19469],[-94.61726,37.43919],[-94.60779,37.43808],[-94.59759,37.43866],[-94.59672,37.4362],[-94.5934,37.43678],[-94.59108,37.43489],[-94.51839,37.43348],[-94.51883,37.40445],[-94.50972,37.4042],[-94.50999,37.38973],[-94.5009,37.38953],[-94.50132,37.37501],[-94.51572,37.37602]]]}},{"type":"Feature","properties":{"zip":"64755","name":"Jasper","kind":"label"},"geometry":{"type":"Point","coordinates":[-94.27482,37.33126]}},{"type":"Feature","properties":{"zip":"64755","name":"Jasper","kind":"zip"},"geometry":{"type":"Polygon","coordinates":[[[-94.37308,37.40046],[-94.30919,37.39862],[-94.30918,37.3992],[-94.30612,37.40003],[-94.3074,37.40268],[-94.30915,37.40246],[-94.309,37.40691],[-94.30585,37.4087],[-94.30568,37.40943],[-94.30709,37.41045],[-94.30506,37.41182],[-94.30626,37.41306],[-94.30615,37.41421],[-94.30802,37.41468],[-94.30688,37.41497],[-94.30393,37.41317],[-94.29984,37.41304],[-94.29999,37.39847],[-94.2853,37.39817],[-94.29005,37.38363],[-94.28191,37.38342],[-94.28169,37.41255],[-94.27184,37.41223],[-94.27147,37.42686],[-94.24381,37.42605],[-94.2434,37.44344],[-94.24126,37.44408],[-94.23978,37.44356],[-94.23598,37.44441],[-94.22952,37.44356],[-94.22834,37.44189],[-94.22423,37.44273],[-94.22368,37.44142],[-94.22153,37.44157],[-94.22183,37.44021],[-94.22066,37.43959],[-94.21903,37.44138],[-94.21592,37.43994],[-94.21298,37.44052],[-94.21143,37.43976],[-94.21185,37.43857],[-94.21064,37.43731],[-94.20716,37.43625],[-94.20609,37.43664],[-94.20443,37.43563],[-94.20367,37.43393],[-94.20134,37.43386],[-94.20038,37.43283],[-94.20118,37.43106],[-94.20066,37.42965],[-94.19866,37.42953],[-94.19815,37.42796],[-94.19582,37.42751],[-94.19407,37.42578],[-94.1909,37.42471],[-94.19077,37.42332],[-94.18942,37.42191],[-94.1895,37.41794],[-94.20768,37.41834],[-94.20974,37.36679],[-94.17269,37.36612],[-94.17329,37.35149],[-94.13687,37.35064],[-94.13737,37.33598],[-94.1191,37.33555],[-94.12056,37.29171],[-94.12301,37.29165],[-94.12431,37.29041],[-94.12472,37.27939],[-94.1292,37.27925],[-94.12916,37.27644],[-94.13837,37.27694],[-94.13874,37.26846],[-94.15209,37.26896],[-94.15179,37.27627],[-94.15546,37.27598],[-94.15976,37.28063],[-94.16254,37.2799],[-94.16414,37.28276],[-94.16867,37.28331],[-94.16987,37.27997],[-94.17935,37.27593],[-94.1788,37.29296],[-94.23277,37.29441],[-94.23359,37.27068],[-94.27048,37.2708],[-94.26995,37.28525],[-94.28806,37.28512],[-94.28769,37.29566],[-94.28553,37.2956],[-94.28496,37.31026],[-94.3624,37.31215],[-94.35863,37.3054],[-94.35602,37.30373],[-94.35447,37.30089],[-94.35587,37.29731],[-94.36103,37.29742],[-94.36103,37.29235],[-94.35814,37.29231],[-94.35813,37.28988],[-94.35735,37.28973],[-94.35734,37.27844],[-94.36175,37.27852],[-94.36231,37.27777],[-94.38478,37.27839],[-94.38511,37.26756],[-94.38053,37.26745],[-94.38102,37.25243],[-94.38306,37.2522],[-94.38707,37.25435],[-94.3894,37.25334],[-94.39414,37.25385],[-94.39706,37.25618],[-94.39907,37.25654],[-94.39922,37.2499],[-94.40043,37.24925],[-94.39938,37.24923],[-94.39968,37.23839],[-94.41318,37.23853],[-94.41358,37.24206],[-94.42194,37.24225],[-94.42195,37.23862],[-94.42682,37.23869],[-94.42687,37.23505],[-94.42097,37.23499],[-94.42022,37.23192],[-94.41795,37.23188],[-94.41804,37.22767],[-94.42005,37.22747],[-94.42141,37.22409],[-94.42734,37.22374],[-94.43011,37.22054],[-94.43197,37.22132],[-94.43266,37.22274],[-94.43635,37.22255],[-94.43896,37.22113],[-94.44108,37.22257],[-94.4438,37.22303],[-94.44365,37.22733],[-94.447,37.23162],[-94.44944,37.23168],[-94.45068,37.23283],[-94.4481,37.23512],[-94.44921,37.23661],[-94.44924,37.2386],[-94.45316,37.23965],[-94.45654,37.24194],[-94.45878,37.24505],[-94.46453,37.245],[-94.46588,37.24674],[-94.46565,37.24878],[-94.46799,37.2512],[-94.471,37.25053],[-94.47046,37.26904],[-94.47448,37.27319],[-94.47537,37.27514],[-94.47033,37.2788],[-94.46947,37.28443],[-94.4709,37.2861],[-94.47285,37.28649],[-94.48021,37.28576],[-94.4799,37.28851],[-94.47579,37.29017],[-94.4835,37.29032],[-94.48309,37.30145],[-94.48113,37.30136],[-94.48104,37.30965],[-94.47662,37.30967],[-94.47623,37.31575],[-94.43113,37.31395],[-94.43024,37.33579],[-94.44639,37.33618],[-94.44795,37.34088],[-94.44606,37.38736],[-94.44617,37.40247],[-94.40974,37.40136],[-94.40958,37.41409],[-94.41028,37.41431],[-94.40957,37.41454],[-94.40955,37.41592],[-94.37307,37.41506],[-94.37308,37.40046]],[[-94.44007,37.26064],[-94.44868,37.26069],[-94.44883,37.25359],[-94.45102,37.25359],[-94.45102,37.24977],[-94.44455,37.24978],[-94.445,37.23898],[-94.43135,37.23876],[-94.43077,37.24409],[-94.43561,37.24419],[-94.43518,37.25694],[-94.44008,37.25701],[-94.44007,37.26064]]]}},{"type":"Feature","properties":{"zip":"64844","name":"Granby","kind":"label"},"geometry":{"type":"Point","coordinates":[-94.24841,36.90813]}},{"type":"Feature","properties":{"zip":"64844","name":"Granby","kind":"zip"},"geometry":{"type":"Polygon","coordinates":[[[-94.28212,36.91801],[-94.27408,36.918],[-94.2741,36.91898],[-94.26942,36.91888],[-94.26939,36.92243],[-94.2731,36.92242],[-94.27336,36.92965],[-94.28108,36.9297],[-94.28168,36.93205],[-94.28233,36.93214],[-94.28065,36.94097],[-94.27607,36.94069],[-94.28059,36.94241],[-94.28065,36.94767],[-94.28432,36.94607],[-94.29479,36.94682],[-94.29851,36.94814],[-94.30015,36.95115],[-94.3067,36.95126],[-94.30598,36.95482],[-94.30663,36.96579],[-94.29822,36.96567],[-94.29796,36.97538],[-94.2798,36.97542],[-94.27938,36.99475],[-94.25418,36.99497],[-94.24256,36.99431],[-94.24211,37.01597],[-94.24383,37.01844],[-94.24568,37.01879],[-94.24754,37.02196],[-94.24742,37.0235],[-94.20546,37.02244],[-94.20597,37.008],[-94.1876,37.00746],[-94.18836,36.98117],[-94.20561,36.98165],[-94.20576,36.97895],[-94.2377,36.96513],[-94.1891,36.96397],[-94.18951,36.95041],[-94.18338,36.94962],[-94.1848,36.94508],[-94.18275,36.94464],[-94.18332,36.94282],[-94.18596,36.94228],[-94.16063,36.937],[-94.15181,36.93605],[-94.14926,36.93556],[-94.14494,36.93597],[-94.13577,36.93945],[-94.13481,36.93954],[-94.1368,36.93789],[-94.13579,36.93434],[-94.13808,36.93537],[-94.14043,36.9335],[-94.14263,36.93336],[-94.14382,36.93467],[-94.145,36.93413],[-94.14789,36.9347],[-94.14759,36.93544],[-94.14925,36.93541],[-94.15216,36.9359],[-94.15449,36.93505],[-94.15544,36.93634],[-94.15823,36.93659],[-94.15975,36.93603],[-94.15956,36.93465],[-94.16431,36.9349],[-94.16455,36.93315],[-94.16733,36.93252],[-94.17197,36.93653],[-94.17485,36.93629],[-94.17736,36.93706],[-94.17949,36.93624],[-94.18669,36.93903],[-94.19103,36.93965],[-94.19174,36.9372],[-94.18912,36.9305],[-94.19026,36.92848],[-94.1906,36.92029],[-94.18133,36.9201],[-94.18242,36.89108],[-94.19854,36.89129],[-94.19868,36.88488],[-94.20005,36.88488],[-94.20531,36.88499],[-94.20513,36.8914],[-94.20969,36.89149],[-94.21115,36.83352],[-94.19861,36.83324],[-94.19898,36.82477],[-94.21655,36.82539],[-94.21706,36.8145],[-94.21281,36.81425],[-94.21047,36.81199],[-94.21099,36.8108],[-94.2171,36.81303],[-94.21749,36.80345],[-94.21948,36.79911],[-94.22092,36.79829],[-94.22741,36.79741],[-94.23039,36.79409],[-94.23528,36.79604],[-94.24113,36.79498],[-94.24345,36.79266],[-94.2506,36.7938],[-94.25152,36.79478],[-94.2539,36.79383],[-94.25374,36.79783],[-94.26228,36.79793],[-94.2623,36.80102],[-94.27157,36.80155],[-94.2703,36.82712],[-94.26585,36.82698],[-94.26401,36.89258],[-94.26872,36.89265],[-94.27163,36.89463],[-94.28194,36.89409],[-94.28176,36.90069],[-94.29065,36.89757],[-94.2963,36.89668],[-94.31277,36.89689],[-94.31301,36.89335],[-94.31643,36.89334],[-94.31718,36.89151],[-94.31666,36.90485],[-94.31494,36.90469],[-94.31522,36.90786],[-94.31113,36.91112],[-94.31024,36.91273],[-94.31317,36.9224],[-94.30915,36.92236],[-94.30945,36.92136],[-94.30819,36.92047],[-94.30091,36.9237],[-94.29709,36.92277],[-94.29318,36.9179],[-94.29376,36.91464],[-94.28734,36.91593],[-94.28212,36.91801]]]}},{"type":"Feature","properties":{"zip":"64865","name":"Seneca","kind":"label"},"geometry":{"type":"Point","coordinates":[-94.5808,36.82272]}},{"type":"Feature","properties":{"zip":"64865","name":"Seneca","kind":"zip"},"geometry":{"type":"Polygon","coordinates":[[[-94.61808,36.66792],[-94.61867,36.87999],[-94.61803,36.96161],[-94.6183,36.96469],[-94.61956,36.96716],[-94.61844,36.96883],[-94.61836,36.97079],[-94.61624,36.97301],[-94.61477,36.97637],[-94.61359,36.97586],[-94.61376,36.97529],[-94.61031,36.97473],[-94.60915,36.97217],[-94.60656,36.97202],[-94.60681,36.97112],[-94.60535,36.97067],[-94.60223,36.97074],[-94.60014,36.97531],[-94.58973,36.9753],[-94.59288,36.96986],[-94.59146,36.96931],[-94.58681,36.96936],[-94.58664,36.97655],[-94.57937,36.97718],[-94.58005,36.97658],[-94.56537,36.97021],[-94.55803,36.97272],[-94.55832,36.96924],[-94.5523,36.96855],[-94.55312,36.95862],[-94.55085,36.95657],[-94.54657,36.95541],[-94.54672,36.95428],[-94.55262,36.95436],[-94.55267,36.95074],[-94.54925,36.95063],[-94.53481,36.94039],[-94.53527,36.9217],[-94.53063,36.91703],[-94.52789,36.90853],[-94.52856,36.90598],[-94.53021,36.90566],[-94.53076,36.90477],[-94.53385,36.9048],[-94.53433,36.90318],[-94.53738,36.90296],[-94.53723,36.89747],[-94.53619,36.89595],[-94.53336,36.89519],[-94.54001,36.88941],[-94.54385,36.88892],[-94.55112,36.88389],[-94.5561,36.879],[-94.55668,36.87579],[-94.55612,36.87486],[-94.55357,36.87671],[-94.55026,36.88157],[-94.54429,36.88351],[-94.54154,36.8829],[-94.5432,36.88113],[-94.54705,36.88047],[-94.54745,36.87859],[-94.55172,36.87738],[-94.55451,36.87447],[-94.55397,36.87141],[-94.55187,36.87083],[-94.54918,36.86855],[-94.54944,36.85308],[-94.55401,36.85361],[-94.55437,36.83818],[-94.55604,36.83817],[-94.55659,36.8255],[-94.55007,36.82474],[-94.54252,36.82246],[-94.53857,36.82236],[-94.5358,36.81758],[-94.53592,36.81694],[-94.53878,36.81652],[-94.53876,36.81537],[-94.53434,36.81549],[-94.53437,36.8147],[-94.53474,36.81175],[-94.53462,36.81478],[-94.53889,36.81495],[-94.5393,36.80772],[-94.52162,36.80709],[-94.52203,36.79776],[-94.51366,36.79746],[-94.50872,36.79503],[-94.50396,36.7946],[-94.50575,36.76292],[-94.52288,36.76352],[-94.5228,36.76166],[-94.52714,36.75535],[-94.52729,36.75349],[-94.5284,36.75267],[-94.53084,36.74778],[-94.53602,36.74549],[-94.53857,36.74242],[-94.5425,36.74033],[-94.54171,36.75654],[-94.55983,36.75686],[-94.56017,36.75294],[-94.54969,36.75232],[-94.54977,36.75032],[-94.56024,36.75072],[-94.56118,36.73578],[-94.5789,36.73648],[-94.57955,36.72218],[-94.58861,36.72226],[-94.59184,36.71993],[-94.5918,36.7077],[-94.61222,36.70837],[-94.60784,36.70323],[-94.60907,36.68561],[-94.60562,36.68274],[-94.60456,36.6773],[-94.60364,36.67626],[-94.60774,36.67281],[-94.61469,36.66947],[-94.61572,36.66968],[-94.61808,36.66792]]]}},{"type":"Feature","properties":{"zip":"64859","name":"Reeds","kind":"label"},"geometry":{"type":"Point","coordinates":[-94.1463,37.16319]}},{"type":"Feature","properties":{"zip":"64859","name":"Reeds","kind":"zip"},"geometry":{"type":"Polygon","coordinates":[[[-94.16716,37.07986],[-94.21054,37.08086],[-94.21046,37.08353],[-94.20435,37.08346],[-94.20434,37.09445],[-94.2062,37.09479],[-94.206,37.10794],[-94.21423,37.10795],[-94.21459,37.10925],[-94.2165,37.11074],[-94.22021,37.11209],[-94.21909,37.11446],[-94.22025,37.11742],[-94.22011,37.12471],[-94.2018,37.1244],[-94.20161,37.12954],[-94.21362,37.13383],[-94.21978,37.13409],[-94.21938,37.14099],[-94.18567,37.13994],[-94.16422,37.14664],[-94.15539,37.15055],[-94.172,37.15307],[-94.17912,37.15324],[-94.17914,37.15505],[-94.1826,37.15531],[-94.18333,37.15698],[-94.20055,37.16244],[-94.20032,37.17059],[-94.20353,37.17095],[-94.20743,37.17381],[-94.21485,37.17569],[-94.21173,37.17769],[-94.20999,37.18277],[-94.20004,37.18254],[-94.19959,37.19704],[-94.16317,37.19629],[-94.16266,37.21448],[-94.14446,37.21411],[-94.14353,37.24641],[-94.12602,37.24612],[-94.12609,37.2426],[-94.10839,37.24215],[-94.10851,37.23855],[-94.09017,37.23804],[-94.0912,37.20037],[-94.09231,37.20005],[-94.09265,37.19785],[-94.09431,37.1951],[-94.09517,37.19043],[-94.10109,37.18663],[-94.09974,37.18301],[-94.10023,37.18123],[-94.1024,37.18161],[-94.10383,37.18063],[-94.10695,37.18017],[-94.1077,37.17644],[-94.09184,37.17607],[-94.0915,37.18722],[-94.07342,37.18672],[-94.07398,37.16456],[-94.09202,37.1652],[-94.0929,37.15069],[-94.07767,37.15023],[-94.0817,37.1489],[-94.08385,37.14675],[-94.09031,37.1481],[-94.09486,37.14767],[-94.09803,37.14586],[-94.09806,37.14341],[-94.09255,37.14347],[-94.0929,37.13619],[-94.11091,37.13685],[-94.11149,37.12565],[-94.12294,37.12582],[-94.12289,37.12236],[-94.12971,37.12236],[-94.13052,37.09427],[-94.13248,37.09343],[-94.13699,37.09434],[-94.14005,37.09249],[-94.14071,37.09089],[-94.13977,37.08961],[-94.14077,37.08647],[-94.14591,37.08535],[-94.14705,37.08645],[-94.15131,37.08443],[-94.1542,37.08524],[-94.15643,37.08776],[-94.15883,37.0878],[-94.1616,37.0846],[-94.16309,37.08407],[-94.16337,37.08304],[-94.16706,37.0822],[-94.16716,37.07986]],[[-94.13183,37.19959],[-94.13227,37.18814],[-94.12774,37.1881],[-94.12742,37.19948],[-94.13183,37.19959]]]}},{"type":"Feature","properties":{"zip":"64866","name":"Stark City","kind":"label"},"geometry":{"type":"Point","coordinates":[-94.13766,36.86889]}},{"type":"Feature","properties":{"zip":"64866","name":"Stark City","kind":"zip"},"geometry":{"type":"Polygon","coordinates":[[[-94.19119,36.93932],[-94.18669,36.93903],[-94.17949,36.93624],[-94.17736,36.93706],[-94.17485,36.93629],[-94.17197,36.93653],[-94.16725,36.93252],[-94.16455,36.93315],[-94.16431,36.9349],[-94.15956,36.93465],[-94.15975,36.93603],[-94.15823,36.93659],[-94.15544,36.93634],[-94.15449,36.93505],[-94.15216,36.9359],[-94.14759,36.93544],[-94.14789,36.9347],[-94.145,36.93413],[-94.14382,36.93467],[-94.14263,36.93336],[-94.14043,36.9335],[-94.13808,36.93537],[-94.13579,36.93434],[-94.13681,36.93767],[-94.1361,36.93893],[-94.13402,36.9399],[-94.13065,36.93991],[-94.13125,36.93635],[-94.12643,36.93256],[-94.12635,36.92986],[-94.09961,36.92888],[-94.09971,36.91828],[-94.08173,36.91786],[-94.08224,36.90325],[-94.09607,36.90361],[-94.09656,36.89287],[-94.09623,36.89199],[-94.09396,36.89134],[-94.08921,36.89107],[-94.08279,36.89361],[-94.07282,36.89566],[-94.06413,36.89558],[-94.06638,36.83023],[-94.12645,36.83173],[-94.12698,36.82248],[-94.12236,36.8224],[-94.12305,36.80786],[-94.14961,36.80877],[-94.157,36.80663],[-94.15898,36.808],[-94.15893,36.81089],[-94.16339,36.81122],[-94.1639,36.8019],[-94.16955,36.80217],[-94.1707,36.80407],[-94.18175,36.8067],[-94.1821,36.7989],[-94.21099,36.8108],[-94.21047,36.81199],[-94.21281,36.81425],[-94.21706,36.8145],[-94.21655,36.82539],[-94.19898,36.82477],[-94.19861,36.83324],[-94.21115,36.83352],[-94.20969,36.89149],[-94.20513,36.8914],[-94.20531,36.88499],[-94.20005,36.88488],[-94.19868,36.88488],[-94.19854,36.89129],[-94.18242,36.89108],[-94.18133,36.9201],[-94.1906,36.92029],[-94.19026,36.92848],[-94.18912,36.9305],[-94.19174,36.9372],[-94.19119,36.93932]]]}},{"type":"Feature","properties":{"zip":"64842","name":"Fairview","kind":"label"},"geometry":{"type":"Point","coordinates":[-94.10668,36.78767]}},{"type":"Feature","properties":{"zip":"64842","name":"Fairview","kind":"zip"},"geometry":{"type":"Polygon","coordinates":[[[-94.05702,36.81941],[-94.05784,36.79098],[-94.06674,36.79129],[-94.06803,36.76226],[-94.10419,36.76359],[-94.10461,36.75228],[-94.10251,36.75205],[-94.09857,36.74896],[-94.15707,36.75097],[-94.15676,36.75819],[-94.14775,36.75789],[-94.14559,36.80861],[-94.12305,36.80786],[-94.12236,36.8224],[-94.12698,36.82248],[-94.12645,36.83173],[-94.06501,36.83019],[-94.06545,36.82025],[-94.05702,36.81941]]]}},{"type":"Feature","properties":{"tract":"111","kind":"tract"},"geometry":{"type":"Polygon","coordinates":[[[-94.54853,37.09544],[-94.54824,37.10255],[-94.54407,37.1094],[-94.5437,37.11397],[-94.53781,37.11247],[-94.53639,37.11259],[-94.53293,37.10966],[-94.5311,37.11039],[-94.52999,37.10994],[-94.52593,37.11276],[-94.52316,37.11073],[-94.51754,37.1109],[-94.51601,37.1102],[-94.51543,37.10936],[-94.51222,37.10975],[-94.51305,37.09399],[-94.52931,37.09446],[-94.52927,37.09533],[-94.54853,37.09544]]]}},{"type":"Feature","properties":{"tract":"114","kind":"tract"},"geometry":{"type":"Polygon","coordinates":[[[-94.51267,37.16694],[-94.50574,37.16715],[-94.5053,37.16779],[-94.50594,37.16859],[-94.50444,37.16958],[-94.5042,37.17245],[-94.50121,37.17365],[-94.50009,37.17317],[-94.49837,37.17325],[-94.49805,37.17209],[-94.49654,37.1718],[-94.49619,37.17195],[-94.49634,37.17267],[-94.49538,37.17334],[-94.49347,37.17248],[-94.48846,37.17361],[-94.48766,37.17578],[-94.48363,37.17789],[-94.48128,37.18006],[-94.4798,37.17941],[-94.47905,37.1796],[-94.47875,37.18071],[-94.47516,37.18192],[-94.47368,37.1815],[-94.47199,37.18017],[-94.47061,37.18041],[-94.46765,37.17896],[-94.46652,37.17902],[-94.46442,37.18031],[-94.46132,37.17971],[-94.45995,37.17834],[-94.46053,37.17703],[-94.45748,37.17448],[-94.45494,37.17548],[-94.45506,37.172],[-94.45588,37.17091],[-94.45739,37.17035],[-94.46124,37.17048],[-94.46204,37.1699],[-94.46322,37.14147],[-94.46444,37.14102],[-94.50619,37.14254],[-94.50543,37.15696],[-94.51005,37.1572],[-94.50997,37.15857],[-94.51263,37.16554],[-94.51267,37.16694]]]}},{"type":"Feature","properties":{"tract":"105","kind":"tract"},"geometry":{"type":"Polygon","coordinates":[[[-94.49502,37.0548],[-94.49394,37.08384],[-94.48364,37.08377],[-94.47728,37.08421],[-94.47831,37.05504],[-94.49502,37.0548]]]}},{"type":"Feature","properties":{"tract":"104","kind":"tract"},"geometry":{"type":"Polygon","coordinates":[[[-94.47831,37.05504],[-94.47673,37.09717],[-94.47532,37.09596],[-94.47243,37.09456],[-94.47052,37.09496],[-94.46932,37.09436],[-94.46823,37.09446],[-94.46683,37.09226],[-94.46552,37.09226],[-94.46322,37.09056],[-94.45893,37.08986],[-94.45792,37.09026],[-94.45682,37.08976],[-94.45702,37.09006],[-94.45642,37.09066],[-94.45202,37.08876],[-94.45292,37.08636],[-94.45022,37.08586],[-94.44982,37.08556],[-94.44982,37.08426],[-94.44878,37.08369],[-94.42262,37.08328],[-94.42344,37.06408],[-94.4204,37.06352],[-94.42356,37.06083],[-94.42363,37.05441],[-94.47831,37.05504]]]}},{"type":"Feature","properties":{"tract":"102","kind":"tract"},"geometry":{"type":"Polygon","coordinates":[[[-94.51233,37.10811],[-94.51147,37.12819],[-94.49336,37.12772],[-94.49356,37.12402],[-94.4662,37.12352],[-94.46653,37.11626],[-94.46792,37.11636],[-94.46881,37.11272],[-94.46672,37.11266],[-94.46672,37.10996],[-94.47463,37.10999],[-94.47513,37.10176],[-94.47654,37.10176],[-94.47673,37.09717],[-94.47742,37.09876],[-94.47893,37.10036],[-94.47992,37.10026],[-94.48285,37.10132],[-94.48381,37.10072],[-94.48493,37.10116],[-94.48624,37.10099],[-94.4872,37.10171],[-94.491,37.09931],[-94.49294,37.10013],[-94.49376,37.10002],[-94.49623,37.10246],[-94.49809,37.10327],[-94.49832,37.10446],[-94.49947,37.10519],[-94.50313,37.10606],[-94.50693,37.10607],[-94.50888,37.10696],[-94.50829,37.10787],[-94.51055,37.10824],[-94.51189,37.10931],[-94.51233,37.10811]]]}},{"type":"Feature","properties":{"tract":"101","kind":"tract"},"geometry":{"type":"Polygon","coordinates":[[[-94.51349,37.08405],[-94.51239,37.10784],[-94.51189,37.10931],[-94.51055,37.10824],[-94.50829,37.10787],[-94.50888,37.10696],[-94.50693,37.10607],[-94.50313,37.10606],[-94.49947,37.10519],[-94.49832,37.10446],[-94.49809,37.10327],[-94.49623,37.10246],[-94.49376,37.10002],[-94.49294,37.10013],[-94.491,37.09931],[-94.4872,37.10171],[-94.48624,37.10099],[-94.48493,37.10116],[-94.48381,37.10072],[-94.48285,37.10132],[-94.47992,37.10026],[-94.47893,37.10036],[-94.47742,37.09876],[-94.47673,37.09717],[-94.47728,37.08421],[-94.48364,37.08377],[-94.51349,37.08405]]]}}]}